STARLINK-1557
1 46034U 20055H   26061.25002314  .00072328  00000+0  42794-2 0  9990
2 46034  53.0698 159.9743 0000951  70.7979 351.6100 15.10800089  5836
STARLINK-2563
1 48410U 21038BK  26061.16668981  .01520484  00000+0  84504-1 0  9996
2 48410  53.0698 330.3633 0001142 124.8042 163.8496 15.10362251  5761
STARLINK-1526
1 46029U 20055C   26061.25002314  .00071230  00000+0  42778-2 0  9997
2 46029  53.0678 159.9815 0001481 113.3644 145.0552 15.10265817  5728
STARLINK-1591
1 46045U 20055U   26061.25002314  .00067186  00000+0  40484-2 0  9992
2 46045  53.0689 159.9815 0001984  83.0195  95.7770 15.10174757  5736
STARLINK-1184
1 45098U 20006BG  26061.05460667  .00003862  00000+0  25345-3 0  9993
2 45098  53.0527 279.8878 0006482 113.6954 246.4718 15.09885057335885
STARLINK-1556
1 46033U 20055G   26061.25002314  .00070033  00000+0  42636-2 0  9995
2 46033  53.0650 159.9943 0000912  77.2420 354.3789 15.09779613  5834
STARLINK-1523
1 46028U 20055B   26061.25002314  .00065829  00000+0  40183-2 0  9991
2 46028  53.0660 159.9930 0001894  89.2448 122.9946 15.09713981  5333
STARLINK-1451
1 45668U 20035M   26061.13440478  .00024117  00000+0  14970-2 0  9992
2 45668  53.0526 100.1612 0001336 351.8875   8.2094 15.09594051317602
STARLINK-1522
1 46027U 20055A   26061.25002314  .00103560  00000+0  63377-2 0  9995
2 46027  53.0632 160.0047 0001340 132.3811 153.9207 15.09367995  5786
STARLINK-2685
1 48468U 21040AS  26061.16668981  .01423002  00000+0  80873-1 0  9995
2 48468  53.0655 225.3742 0001857  81.9224  56.4723 15.09242807  5828
